CCSDS_OMM_VERS = 2.0
CREATION_DATE  = 
ORIGINATOR     = 

OBJECT_NAME    = ATLAS CENTAUR 2
OBJECT_ID      = 1963-047A
CENTER_NAME    = EARTH
REF_FRAME      = TEME
TIME_SYSTEM    = UTC
MEAN_ELEMENT_THEORY = SGP/SGP4

EPOCH          = 2026-02-15T03:13:08.985792
MEAN_MOTION    = 14.12002500
ECCENTRICITY   = .0548111
INCLINATION    = 30.3580
RA_OF_ASC_NODE = 321.6901
ARG_OF_PERICENTER = 241.5314
MEAN_ANOMALY   = 112.9020

EPHEMERIS_TYPE = 0
CLASSIFICATION_TYPE = U
NORAD_CAT_ID   = 694
ELEMENT_SET_NO = 999
REV_AT_EPOCH   = 12843
BSTAR          = .13835E-3
MEAN_MOTION_DOT = .1255E-4
MEAN_MOTION_DDOT = 0

CCSDS_OMM_VERS = 2.0
CREATION_DATE  = 
ORIGINATOR     = 

OBJECT_NAME    = THOR AGENA D R/B
OBJECT_ID      = 1964-002A
CENTER_NAME    = EARTH
REF_FRAME      = TEME
TIME_SYSTEM    = UTC
MEAN_ELEMENT_THEORY = SGP/SGP4

EPOCH          = 2026-02-14T23:38:47.792832
MEAN_MOTION    = 14.34005786
ECCENTRICITY   = .0032349
INCLINATION    = 99.1228
RA_OF_ASC_NODE = 58.0860
ARG_OF_PERICENTER = 326.1613
MEAN_ANOMALY   = 33.7506

EPHEMERIS_TYPE = 0
CLASSIFICATION_TYPE = U
NORAD_CAT_ID   = 733
ELEMENT_SET_NO = 999
REV_AT_EPOCH   = 23504
BSTAR          = .97036E-4
MEAN_MOTION_DOT = .223E-5
MEAN_MOTION_DDOT = 0

CCSDS_OMM_VERS = 2.0
CREATION_DATE  = 
ORIGINATOR     = 

OBJECT_NAME    = SL-3 R/B
OBJECT_ID      = 1964-053B
CENTER_NAME    = EARTH
REF_FRAME      = TEME
TIME_SYSTEM    = UTC
MEAN_ELEMENT_THEORY = SGP/SGP4

EPOCH          = 2026-02-15T04:14:42.728352
MEAN_MOTION    = 14.61343551
ECCENTRICITY   = .007869
INCLINATION    = 65.0769
RA_OF_ASC_NODE = 37.2367
ARG_OF_PERICENTER = 299.3844
MEAN_ANOMALY   = 59.9415

EPHEMERIS_TYPE = 0
CLASSIFICATION_TYPE = U
NORAD_CAT_ID   = 877
ELEMENT_SET_NO = 999
REV_AT_EPOCH   = 26350
BSTAR          = .88086E-4
MEAN_MOTION_DOT = .33E-5
MEAN_MOTION_DDOT = 0

CCSDS_OMM_VERS = 2.0
CREATION_DATE  = 
ORIGINATOR     = 

OBJECT_NAME    = SL-8 R/B
OBJECT_ID      = 1967-045B
CENTER_NAME    = EARTH
REF_FRAME      = TEME
TIME_SYSTEM    = UTC
MEAN_ELEMENT_THEORY = SGP/SGP4

EPOCH          = 2026-02-15T02:01:11.925120
MEAN_MOTION    = 14.45598527
ECCENTRICITY   = .0063347
INCLINATION    = 74.0108
RA_OF_ASC_NODE = 30.3032
ARG_OF_PERICENTER = 42.1757
MEAN_ANOMALY   = 318.4249

EPHEMERIS_TYPE = 0
CLASSIFICATION_TYPE = U
NORAD_CAT_ID   = 2802
ELEMENT_SET_NO = 999
REV_AT_EPOCH   = 8575
BSTAR          = .10227E-3
MEAN_MOTION_DOT = .342E-5
MEAN_MOTION_DDOT = 0

CCSDS_OMM_VERS = 2.0
CREATION_DATE  = 
ORIGINATOR     = 

OBJECT_NAME    = SL-8 R/B
OBJECT_ID      = 1968-040B
CENTER_NAME    = EARTH
REF_FRAME      = TEME
TIME_SYSTEM    = UTC
MEAN_ELEMENT_THEORY = SGP/SGP4

EPOCH          = 2026-02-15T00:20:54.734496
MEAN_MOTION    = 15.03083526
ECCENTRICITY   = .0024999
INCLINATION    = 74.0328
RA_OF_ASC_NODE = 0.0161
ARG_OF_PERICENTER = 190.8259
MEAN_ANOMALY   = 169.2395

EPHEMERIS_TYPE = 0
CLASSIFICATION_TYPE = U
NORAD_CAT_ID   = 3230
ELEMENT_SET_NO = 999
REV_AT_EPOCH   = 8660
BSTAR          = .26614E-3
MEAN_MOTION_DOT = .3572E-4
MEAN_MOTION_DDOT = 0

CCSDS_OMM_VERS = 2.0
CREATION_DATE  = 
ORIGINATOR     = 

OBJECT_NAME    = OAO 2
OBJECT_ID      = 1968-110A
CENTER_NAME    = EARTH
REF_FRAME      = TEME
TIME_SYSTEM    = UTC
MEAN_ELEMENT_THEORY = SGP/SGP4

EPOCH          = 2026-02-15T02:03:55.030176
MEAN_MOTION    = 14.47293376
ECCENTRICITY   = .0005305
INCLINATION    = 34.9945
RA_OF_ASC_NODE = 31.4213
ARG_OF_PERICENTER = 10.5333
MEAN_ANOMALY   = 349.5468

EPHEMERIS_TYPE = 0
CLASSIFICATION_TYPE = U
NORAD_CAT_ID   = 3597
ELEMENT_SET_NO = 999
REV_AT_EPOCH   = 1582
BSTAR          = .67374E-4
MEAN_MOTION_DOT = .231E-5
MEAN_MOTION_DDOT = 0

CCSDS_OMM_VERS = 2.0
CREATION_DATE  = 
ORIGINATOR     = 

OBJECT_NAME    = ISIS 1
OBJECT_ID      = 1969-009A
CENTER_NAME    = EARTH
REF_FRAME      = TEME
TIME_SYSTEM    = UTC
MEAN_ELEMENT_THEORY = SGP/SGP4

EPOCH          = 2026-02-14T19:05:24.706176
MEAN_MOTION    = 11.30405673
ECCENTRICITY   = .1707865
INCLINATION    = 88.4555
RA_OF_ASC_NODE = 157.8029
ARG_OF_PERICENTER = 135.3533
MEAN_ANOMALY   = 239.8527

EPHEMERIS_TYPE = 0
CLASSIFICATION_TYPE = U
NORAD_CAT_ID   = 3669
ELEMENT_SET_NO = 999
REV_AT_EPOCH   = 34594
BSTAR          = .1488E-3
MEAN_MOTION_DOT = .23E-5
MEAN_MOTION_DDOT = 0

CCSDS_OMM_VERS = 2.0
CREATION_DATE  = 
ORIGINATOR     = 

OBJECT_NAME    = SERT 2
OBJECT_ID      = 1970-009A
CENTER_NAME    = EARTH
REF_FRAME      = TEME
TIME_SYSTEM    = UTC
MEAN_ELEMENT_THEORY = SGP/SGP4

EPOCH          = 2026-02-14T20:56:20.338368
MEAN_MOTION    = 13.58727472
ECCENTRICITY   = .00042
INCLINATION    = 99.2729
RA_OF_ASC_NODE = 350.2184
ARG_OF_PERICENTER = 216.0202
MEAN_ANOMALY   = 211.5156

EPHEMERIS_TYPE = 0
CLASSIFICATION_TYPE = U
NORAD_CAT_ID   = 4327
ELEMENT_SET_NO = 999
REV_AT_EPOCH   = 77679
BSTAR          = .42043E-4
MEAN_MOTION_DOT = -.11E-6
MEAN_MOTION_DDOT = 0

CCSDS_OMM_VERS = 2.0
CREATION_DATE  = 
ORIGINATOR     = 

OBJECT_NAME    = SL-3 R/B
OBJECT_ID      = 1971-028B
CENTER_NAME    = EARTH
REF_FRAME      = TEME
TIME_SYSTEM    = UTC
MEAN_ELEMENT_THEORY = SGP/SGP4

EPOCH          = 2026-02-15T03:26:50.814816
MEAN_MOTION    = 15.59257391
ECCENTRICITY   = .0016758
INCLINATION    = 81.2332
RA_OF_ASC_NODE = 79.8411
ARG_OF_PERICENTER = 14.1638
MEAN_ANOMALY   = 346.0080

EPHEMERIS_TYPE = 0
CLASSIFICATION_TYPE = U
NORAD_CAT_ID   = 5118
ELEMENT_SET_NO = 999
REV_AT_EPOCH   = 98515
BSTAR          = .37536E-3
MEAN_MOTION_DOT = .29761E-3
MEAN_MOTION_DDOT = 0

CCSDS_OMM_VERS = 2.0
CREATION_DATE  = 
ORIGINATOR     = 

OBJECT_NAME    = ASTEX 1
OBJECT_ID      = 1971-089A
CENTER_NAME    = EARTH
REF_FRAME      = TEME
TIME_SYSTEM    = UTC
MEAN_ELEMENT_THEORY = SGP/SGP4

EPOCH          = 2026-02-15T04:46:09.935040
MEAN_MOTION    = 14.50743000
ECCENTRICITY   = .0016656
INCLINATION    = 92.7147
RA_OF_ASC_NODE = 144.4838
ARG_OF_PERICENTER = 153.3609
MEAN_ANOMALY   = 206.8456

EPHEMERIS_TYPE = 0
CLASSIFICATION_TYPE = U
NORAD_CAT_ID   = 5560
ELEMENT_SET_NO = 999
REV_AT_EPOCH   = 85904
BSTAR          = .11943E-3
MEAN_MOTION_DOT = .469E-5
MEAN_MOTION_DDOT = 0

CCSDS_OMM_VERS = 2.0
CREATION_DATE  = 
ORIGINATOR     = 

OBJECT_NAME    = SL-8 R/B
OBJECT_ID      = 1971-119B
CENTER_NAME    = EARTH
REF_FRAME      = TEME
TIME_SYSTEM    = UTC
MEAN_ELEMENT_THEORY = SGP/SGP4

EPOCH          = 2026-02-15T04:16:01.774848
MEAN_MOTION    = 14.37136157
ECCENTRICITY   = .0552874
INCLINATION    = 73.8843
RA_OF_ASC_NODE = 217.7750
ARG_OF_PERICENTER = 189.0469
MEAN_ANOMALY   = 170.0404

EPHEMERIS_TYPE = 0
CLASSIFICATION_TYPE = U
NORAD_CAT_ID   = 5730
ELEMENT_SET_NO = 999
REV_AT_EPOCH   = 65225
BSTAR          = .67065E-3
MEAN_MOTION_DOT = .12923E-3
MEAN_MOTION_DDOT = 0

CCSDS_OMM_VERS = 2.0
CREATION_DATE  = 
ORIGINATOR     = 

OBJECT_NAME    = OAO 3 (COPERNICUS)
OBJECT_ID      = 1972-065A
CENTER_NAME    = EARTH
REF_FRAME      = TEME
TIME_SYSTEM    = UTC
MEAN_ELEMENT_THEORY = SGP/SGP4

EPOCH          = 2026-02-15T04:01:49.601280
MEAN_MOTION    = 14.59977313
ECCENTRICITY   = .0006855
INCLINATION    = 35.0059
RA_OF_ASC_NODE = 65.6264
ARG_OF_PERICENTER = 331.6971
MEAN_ANOMALY   = 87.7302

EPHEMERIS_TYPE = 0
CLASSIFICATION_TYPE = U
NORAD_CAT_ID   = 6153
ELEMENT_SET_NO = 999
REV_AT_EPOCH   = 84290
BSTAR          = .78288E-4
MEAN_MOTION_DOT = .36E-5
MEAN_MOTION_DDOT = 0

