ATLAS CENTAUR 2         
1 00694U 63047A   26046.13413178  .00001255  00000+0  13835-3 0  9990
2 00694  30.3580 321.6901 0548111 241.5314 112.9020 14.12002500128430
THOR AGENA D R/B        
1 00733U 64002A   26045.98527538  .00000223  00000+0  97036-4 0  9994
2 00733  99.1228  58.0860 0032349 326.1613  33.7506 14.34005786235042
SL-3 R/B                
1 00877U 64053B   26046.17688343  .00000330  00000+0  88086-4 0  9997
2 00877  65.0769  37.2367 0078690 299.3844  59.9415 14.61343551263506
SL-8 R/B                
1 02802U 67045B   26046.08416580  .00000342  00000+0  10227-3 0  9997
2 02802  74.0108  30.3032 0063347  42.1757 318.4249 14.45598527 85750
SL-8 R/B                
1 03230U 68040B   26046.01452239  .00003572  00000+0  26614-3 0  9998
2 03230  74.0328   0.0161 0024999 190.8259 169.2395 15.03083526 86607
OAO 2                   
1 03597U 68110A   26046.08605359  .00000231  00000+0  67374-4 0  9990
2 03597  34.9945  31.4213 0005305  10.5333 349.5468 14.47293376 15823
ISIS 1                  
1 03669U 69009A   26045.79542484  .00000230  00000+0  14880-3 0  9996
2 03669  88.4555 157.8029 1707865 135.3533 239.8527 11.30405673345941
SERT 2                  
1 04327U 70009A   26045.87245762 -.00000011  00000+0  42043-4 0  9999
2 04327  99.2729 350.2184 0004200 216.0202 211.5156 13.58727472776791
SL-3 R/B                
1 05118U 71028B   26046.14364369  .00029761  00000+0  37536-3 0  9998
2 05118  81.2332  79.8411 0016758  14.1638 346.0080 15.59257391985152
ASTEX 1                 
1 05560U 71089A   26046.19872610  .00000469  00000+0  11943-3 0  9992
2 05560  92.7147 144.4838 0016656 153.3609 206.8456 14.50743000859042
SL-8 R/B                
1 05730U 71119B   26046.17779832  .00012923  00000+0  67065-3 0  9999
2 05730  73.8843 217.7750 0552874 189.0469 170.0404 14.37136157652251
OAO 3 (COPERNICUS)      
1 06153U 72065A   26046.16793520  .00000360  00000+0  78288-4 0  9991
2 06153  35.0059  65.6264 0006855 331.6971  87.7302 14.59977313842901
